{
  "type": "FeatureCollection",
  "features": [
    {
      "type": "Feature",
      "properties": {
        "norad_id": 44709,
        "name": "BEIDOU-3 IGSO-3 (C40)",
        "group": "beidou",
        "lat": 13.628906436750427,
        "lon": 93.20540686349447,
        "alt_km": 35626.575964145275,
        "timestamp": "2025-12-09T16:56:36.840164+00:00",
        "meta_object_name": "BEIDOU-3 IGSO-3 (C40)",
        "meta_object_id": "2019-073A",
        "meta_epoch": "2025-11-20T07:11:22.740000",
        "meta_mean_motion": 1.00250097,
        "meta_eccentricity": 0.0044538,
        "meta_inclination": 55.163,
        "meta_ra_of_asc_node": 283.159,
        "meta_arg_of_pericenter": 191.5856,
        "meta_mean_anomaly": 168.2409,
        "meta_ephemeris_type": 0,
        "meta_classification_type": "U",
        "meta_norad_cat_id": 44709,
        "meta_element_set_no": 999,
        "meta_rev_at_epoch": 2236,
        "meta_bstar": 0,
        "meta_mean_motion_dot": -2.06e-06,
        "meta_mean_motion_ddot": 0,
        "tle_line1": "1 44709U 19073A   25324.29956875 -.00000206  00000+0  00000+0 0  9998",
        "tle_line2": "2 44709  55.1630 283.1590 0044538 191.5856 168.2409  1.00250097 22360"
      },
      "geometry": {
        "type": "Point",
        "coordinates": [
          93.20540686349447,
          13.628906436750427
        ]
      }
    },
    {
      "type": "Feature",
      "properties": {
        "norad_id": 44793,
        "name": "BEIDOU-3 M22 (C44)",
        "group": "beidou",
        "lat": 48.15939757766623,
        "lon": 72.56810126248597,
        "alt_km": 21522.26029028668,
        "timestamp": "2025-12-09T16:56:36.840178+00:00",
        "meta_object_name": "BEIDOU-3 M22 (C44)",
        "meta_object_id": "2019-078A",
        "meta_epoch": "2025-12-09T00:00:40.080096",
        "meta_mean_motion": 1.86231694,
        "meta_eccentricity": 0.00056078,
        "meta_inclination": 54.1119,
        "meta_ra_of_asc_node": 306.5176,
        "meta_arg_of_pericenter": 23.0098,
        "meta_mean_anomaly": 337.0045,
        "meta_ephemeris_type": 0,
        "meta_classification_type": "U",
        "meta_norad_cat_id": 44793,
        "meta_element_set_no": 999,
        "meta_rev_at_epoch": 4110,
        "meta_bstar": 0,
        "meta_mean_motion_dot": -7.5e-07,
        "meta_mean_motion_ddot": 0,
        "tle_line1": "1 44793U 19078A   25343.00046389 -.00000075  00000+0  00000+0 0  9990",
        "tle_line2": "2 44793  54.1119 306.5176 0005607  23.0098 337.0045  1.86231694 41106"
      },
      "geometry": {
        "type": "Point",
        "coordinates": [
          72.56810126248597,
          48.15939757766623
        ]
      }
    },
    {
      "type": "Feature",
      "properties": {
        "norad_id": 44794,
        "name": "BEIDOU-3 M21 (C43)",
        "group": "beidou",
        "lat": 16.697734915101403,
        "lon": -41.01405407493806,
        "alt_km": 21515.901940720454,
        "timestamp": "2025-12-09T16:56:36.840189+00:00",
        "meta_object_name": "BEIDOU-3 M21 (C43)",
        "meta_object_id": "2019-078B",
        "meta_epoch": "2025-12-09T03:18:47.736000",
        "meta_mean_motion": 1.86227438,
        "meta_eccentricity": 0.0003852,
        "meta_inclination": 54.0853,
        "meta_ra_of_asc_node": 306.4778,
        "meta_arg_of_pericenter": 10.0441,
        "meta_mean_anomaly": 349.953,
        "meta_ephemeris_type": 0,
        "meta_classification_type": "U",
        "meta_norad_cat_id": 44794,
        "meta_element_set_no": 999,
        "meta_rev_at_epoch": 4111,
        "meta_bstar": 0,
        "meta_mean_motion_dot": -7.6e-07,
        "meta_mean_motion_ddot": 0,
        "tle_line1": "1 44794U 19078B   25343.13805250 -.00000076  00000+0  00000+0 0  9996",
        "tle_line2": "2 44794  54.0853 306.4778 0003852  10.0441 349.9530  1.86227438 41119"
      },
      "geometry": {
        "type": "Point",
        "coordinates": [
          -41.01405407493806,
          16.697734915101403
        ]
      }
    },
    {
      "type": "Feature",
      "properties": {
        "norad_id": 44864,
        "name": "BEIDOU-3 M19 (C41)",
        "group": "beidou",
        "lat": -29.56453494496917,
        "lon": -88.79764130086349,
        "alt_km": 21514.14525874921,
        "timestamp": "2025-12-09T16:56:36.840200+00:00",
        "meta_object_name": "BEIDOU-3 M19 (C41)",
        "meta_object_id": "2019-090A",
        "meta_epoch": "2025-12-09T13:03:36.527328",
        "meta_mean_motion": 1.86230657,
        "meta_eccentricity": 0.0017895,
        "meta_inclination": 56.3907,
        "meta_ra_of_asc_node": 69.0668,
        "meta_arg_of_pericenter": 285.5647,
        "meta_mean_anomaly": 182.4392,
        "meta_ephemeris_type": 0,
        "meta_classification_type": "U",
        "meta_norad_cat_id": 44864,
        "meta_element_set_no": 999,
        "meta_rev_at_epoch": 4070,
        "meta_bstar": 0,
        "meta_mean_motion_dot": -4.9e-07,
        "meta_mean_motion_ddot": 0,
        "tle_line1": "1 44864U 19090A   25343.54417277 -.00000049  00000+0  00000+0 0  9991",
        "tle_line2": "2 44864  56.3907  69.0668 0017895 285.5647 182.4392  1.86230657 40708"
      },
      "geometry": {
        "type": "Point",
        "coordinates": [
          -88.79764130086349,
          -29.56453494496917
        ]
      }
    },
    {
      "type": "Feature",
      "properties": {
        "norad_id": 44865,
        "name": "BEIDOU-3 M20 (C42)",
        "group": "beidou",
        "lat": -42.29511145430243,
        "lon": 31.93646472028093,
        "alt_km": 21492.04821310009,
        "timestamp": "2025-12-09T16:56:36.840211+00:00",
        "meta_object_name": "BEIDOU-3 M20 (C42)",
        "meta_object_id": "2019-090B",
        "meta_epoch": "2025-12-09T06:01:46.671168",
        "meta_mean_motion": 1.86231243,
        "meta_eccentricity": 0.0014851,
        "meta_inclination": 56.3923,
        "meta_ra_of_asc_node": 69.1112,
        "meta_arg_of_pericenter": 298.012,
        "meta_mean_anomaly": 63.2082,
        "meta_ephemeris_type": 0,
        "meta_classification_type": "U",
        "meta_norad_cat_id": 44865,
        "meta_element_set_no": 999,
        "meta_rev_at_epoch": 4068,
        "meta_bstar": 0,
        "meta_mean_motion_dot": -4.8e-07,
        "meta_mean_motion_ddot": 0,
        "tle_line1": "1 44865U 19090B   25343.25123462 -.00000048  00000+0  00000+0 0  9999",
        "tle_line2": "2 44865  56.3923  69.1112 0014851 298.0120  63.2082  1.86231243 40687"
      },
      "geometry": {
        "type": "Point",
        "coordinates": [
          31.93646472028093,
          -42.29511145430243
        ]
      }
    },
    {
      "type": "Feature",
      "properties": {
        "norad_id": 45344,
        "name": "BEIDOU-3 G2 (C60)",
        "group": "beidou",
        "lat": 0.41074657780097146,
        "lon": 52.89876965083138,
        "alt_km": 35790.028617834185,
        "timestamp": "2025-12-09T16:56:36.840223+00:00",
        "meta_object_name": "BEIDOU-3 G2 (C60)",
        "meta_object_id": "2020-017A",
        "meta_epoch": "2025-12-08T17:24:33.367680",
        "meta_mean_motion": 1.00273181,
        "meta_eccentricity": 0.00043587,
        "meta_inclination": 2.49,
        "meta_ra_of_asc_node": 43.8378,
        "meta_arg_of_pericenter": 265.5358,
        "meta_mean_anomaly": 109.5017,
        "meta_ephemeris_type": 0,
        "meta_classification_type": "U",
        "meta_norad_cat_id": 45344,
        "meta_element_set_no": 999,
        "meta_rev_at_epoch": 2135,
        "meta_bstar": 0,
        "meta_mean_motion_dot": -1.39e-06,
        "meta_mean_motion_ddot": 0,
        "tle_line1": "1 45344U 20017A   25342.72538620 -.00000139  00000+0  00000+0 0  9991",
        "tle_line2": "2 45344   2.4900  43.8378 0004358 265.5358 109.5017  1.00273181 21351"
      },
      "geometry": {
        "type": "Point",
        "coordinates": [
          52.89876965083138,
          0.41074657780097146
        ]
      }
    },
    {
      "type": "Feature",
      "properties": {
        "norad_id": 45807,
        "name": "BEIDOU-3 G3 (C61)",
        "group": "beidou",
        "lat": 0.595067598919423,
        "lon": 83.42425802609378,
        "alt_km": 35776.50086548242,
        "timestamp": "2025-12-09T16:56:36.840235+00:00",
        "meta_object_name": "BEIDOU-3 G3 (C61)",
        "meta_object_id": "2020-040A",
        "meta_epoch": "2025-12-08T17:33:17.532288",
        "meta_mean_motion": 1.00275813,
        "meta_eccentricity": 0.00060306,
        "meta_inclination": 1.9816,
        "meta_ra_of_asc_node": 66.5886,
        "meta_arg_of_pericenter": 306.262,
        "meta_mean_anomaly": 78.7159,
        "meta_ephemeris_type": 0,
        "meta_classification_type": "U",
        "meta_norad_cat_id": 45807,
        "meta_element_set_no": 999,
        "meta_rev_at_epoch": 2016,
        "meta_bstar": 0,
        "meta_mean_motion_dot": -3.52e-06,
        "meta_mean_motion_ddot": 0,
        "tle_line1": "1 45807U 20040A   25342.73145292 -.00000352  00000+0  00000+0 0  9998",
        "tle_line2": "2 45807   1.9816  66.5886 0006030 306.2620  78.7159  1.00275813 20161"
      },
      "geometry": {
        "type": "Point",
        "coordinates": [
          83.42425802609378,
          0.595067598919423
        ]
      }
    }
  ]
}